NORAD_CAT_ID,OBJECT_NAME,OBJECT_TYPE,EPOCH,MEAN_MOTION,ECCENTRICITY,INCLINATION,RA_OF_ASC_NODE,ARG_OF_PERICENTER,MEAN_ANOMALY,BSTAR,MEAN_MOTION_DOT,MEAN_MOTION_DDOT,TLE_LINE0,TLE_LINE1,TLE_LINE2,SEMIMAJOR_AXIS,PERIOD,APOGEE,PERIGEE,DECAYED
52459.0,STARLINK-3856,PAYLOAD,2023-10-25 20:26:59,15.08843002,0.0001441,53.2183,346.0165,86.3891,273.7266,0.00016084,2.273e-05,0.0,0 STARLINK-3856,1 52459U 22049J   23298.85207200  .00002273  00000-0  16084-3 0  9996,2 52459  53.2183 346.0165 0001441  86.3891 273.7266 15.08843002 81697,6917.871,95.437,540.733,538.739,0.0
52459.0,STARLINK-3856,PAYLOAD,2023-10-26 09:10:04,15.08844407,0.0001705,53.219,343.6359,86.5093,273.6094,0.00010561,1.393e-05,0.0,0 STARLINK-3856,1 52459U 22049J   23299.38199230  .00001393  00000-0  10561-3 0  9994,2 52459  53.2190 343.6359 0001705  86.5093 273.6094 15.08844407 81612,6917.867,95.437,540.911,538.552,0.0
52459.0,STARLINK-3856,PAYLOAD,2023-10-26 20:17:45,15.08851761,0.0001669,53.2186,341.5548,82.5371,277.5811,-4.706e-06,-3.63e-06,0.0,0 STARLINK-3856,1 52459U 22049J   23299.84566746 -.00000363  00000-0 -47060-5 0  9999,2 52459  53.2186 341.5548 0001669  82.5371 277.5811 15.08851761 81686,6917.844,95.437,540.864,538.555,0.0
52459.0,STARLINK-3856,PAYLOAD,2023-10-27 02:39:18,15.08843217,0.0001459,53.2182,340.3638,85.5137,274.6022,0.00023136,3.396e-05,0.0,0 STARLINK-3856,1 52459U 22049J   23300.11063225  .00003396  00000-0  23136-3 0  9999,2 52459  53.2182 340.3638 0001459  85.5137 274.6022 15.08843217 81880,6917.871,95.437,540.745,538.726,0.0
52459.0,STARLINK-3856,PAYLOAD,2023-10-27 12:11:36,15.08857337,0.0001793,53.218,338.5804,92.1499,267.9698,0.00037358,5.665e-05,0.0,0 STARLINK-3856,1 52459U 22049J   23300.50806472  .00005665  00000-0  37358-3 0  9993,2 52459  53.2180 338.5804 0001793  92.1499 267.9698 15.08857337 81947,6917.827,95.436,540.933,538.452,0.0
52459.0,STARLINK-3856,PAYLOAD,2023-10-27 20:08:32,15.08841751,0.0001737,53.2176,337.0932,90.4615,269.6576,6.1701e-05,6.94e-06,0.0,0 STARLINK-3856,1 52459U 22049J   23300.83927022  .00000694  00000-0  61701-4 0  9991,2 52459  53.2176 337.0932 0001737  90.4615 269.6576 15.08841751 81999,6917.875,95.437,540.942,538.538,0.0
52459.0,STARLINK-3856,PAYLOAD,2023-10-28 08:51:38,15.08836838,0.0001723,53.2165,334.715,94.1874,265.9315,-1.5443e-05,-5.34e-06,0.0,0 STARLINK-3856,1 52459U 22049J   23301.36919320 -.00000534  00000-0 -15443-4 0  9999,2 52459  53.2165 334.7150 0001723  94.1874 265.9315 15.08836838 81918,6917.89,95.438,540.947,538.563,0.0
52459.0,STARLINK-3856,PAYLOAD,2023-10-28 21:34:43,15.0884184,0.0001671,53.2171,332.3355,97.0438,263.0745,0.00018266,2.62e-05,0.0,0 STARLINK-3856,1 52459U 22049J   23301.89911258  .00002620  00000-0  18266-3 0  9990,2 52459  53.2171 332.3355 0001671  97.0438 263.0745 15.08841840 81999,6917.875,95.437,540.896,538.584,0.0
52459.0,STARLINK-3856,PAYLOAD,2023-10-29 11:53:11,15.08860188,0.0001647,53.2163,329.659,94.6241,265.494,0.00084103,0.0001313,0.0,0 STARLINK-3856,1 52459U 22049J   23302.49526805  .00013130  00000-0  84103-3 0  9998,2 52459  53.2163 329.6590 0001647  94.6241 265.4940 15.08860188 82246,6917.819,95.436,540.823,538.544,0.0
52459.0,STARLINK-3856,PAYLOAD,2023-10-30 02:11:39,15.08842067,0.0001707,53.2162,326.9823,94.3583,265.7604,0.0001699,2.417e-05,0.0,0 STARLINK-3856,1 52459U 22049J   23303.09143296  .00002417  00000-0  16990-3 0  9999,2 52459  53.2162 326.9823 0001707  94.3583 265.7604 15.08842067 82333,6917.874,95.437,540.92,538.558,0.0
52459.0,STARLINK-3856,PAYLOAD,2023-10-30 18:05:31,15.08830759,8.94e-05,53.2171,324.012,109.3728,250.7361,-0.00015089,-2.688e-05,0.0,0 STARLINK-3856,1 52459U 22049J   23303.75383470 -.00002688  00000-0 -15089-3 0  9992,2 52459  53.2171 324.0120 0000894 109.3728 250.7361 15.08830759 82436,6917.909,95.438,540.392,539.155,0.0
52459.0,STARLINK-3856,PAYLOAD,2023-10-31 08:24:00,15.08844182,0.0001681,53.2167,321.3335,82.3637,277.7546,0.0010032,0.00015716,0.0,0 STARLINK-3856,1 52459U 22049J   23304.35000028  .00015716  00000-0  10032-2 0  9990,2 52459  53.2167 321.3335 0001681  82.3637 277.7546 15.08844182 82522,6917.868,95.437,540.895,538.57,0.0
52459.0,STARLINK-3856,PAYLOAD,2023-10-31 17:56:18,15.08840676,0.0001509,53.2165,319.5493,78.2502,281.8659,0.00047462,7.274e-05,0.0,0 STARLINK-3856,1 52459U 22049J   23304.74744078  .00007274  00000-0  47462-3 0  9991,2 52459  53.2165 319.5493 0001509  78.2502 281.8659 15.08840676 82589,6917.878,95.438,540.787,538.699,0.0
52459.0,STARLINK-3856,PAYLOAD,2023-11-01 09:50:10,15.08846325,0.0001867,53.2186,316.5782,90.2662,269.8544,0.00038215,5.8e-05,0.0,0 STARLINK-3856,1 52459U 22049J   23305.40984091  .00005800  00000-0  38215-3 0  9995,2 52459  53.2186 316.5782 0001867  90.2662 269.8544 15.08846325 82528,6917.861,95.437,541.018,538.434,0.0
52459.0,STARLINK-3856,PAYLOAD,2023-11-01 17:47:05,15.08840506,0.0001683,53.2171,315.0892,95.2167,264.9017,0.00015539,2.186e-05,0.0,0 STARLINK-3856,1 52459U 22049J   23305.74104075  .00002186  00000-0  15539-3 0  9996,2 52459  53.2171 315.0892 0001683  95.2167 264.9017 15.08840506 82738,6917.879,95.438,540.908,538.58,0.0
52459.0,STARLINK-3856,PAYLOAD,2023-11-02 09:40:56,15.08855635,0.0001869,53.2181,312.1152,93.8222,266.2984,0.00045393,6.947e-05,0.0,0 STARLINK-3856,1 52459U 22049J   23306.40343638  .00006947  00000-0  45393-3 0  9990,2 52459  53.2181 312.1152 0001869  93.8222 266.2984 15.08855635 82836,6917.833,95.437,540.991,538.405,0.0
52459.0,STARLINK-3856,PAYLOAD,2023-11-02 17:37:52,15.08840602,0.000183,53.2174,310.63,87.8924,272.2277,3.5284e-05,2.73e-06,0.0,0 STARLINK-3856,1 52459U 22049J   23306.73464038  .00000273  00000-0  35284-4 0  9999,2 52459  53.2174 310.6300 0001830  87.8924 272.2277 15.08840602 82881,6917.879,95.438,541.01,538.478,0.0
52459.0,STARLINK-3856,PAYLOAD,2023-11-03 07:56:20,15.08843781,0.0001582,53.2165,307.9521,85.7282,274.3891,0.00017272,2.462e-05,0.0,0 STARLINK-3856,1 52459U 22049J   23307.33079857  .00002462  00000-0  17272-3 0  9995,2 52459  53.2165 307.9521 0001582  85.7282 274.3891 15.08843781 82812,6917.869,95.437,540.828,538.639,0.0
52459.0,STARLINK-3856,PAYLOAD,2023-11-03 17:28:40,15.08844287,0.0001685,53.2168,306.1681,91.0209,269.0976,0.000237,3.486e-05,0.0,0 STARLINK-3856,1 52459U 22049J   23307.72824118  .00003486  00000-0  23700-3 0  9996,2 52459  53.2168 306.1681 0001685  91.0209 269.0976 15.08844287 82879,6917.867,95.437,540.898,538.567,0.0
52459.0,STARLINK-3856,PAYLOAD,2023-11-04 04:36:22,15.0884203,0.0001741,53.2165,304.0867,89.3221,270.7971,0.00032097,4.824e-05,0.0,0 STARLINK-3856,1 52459U 22049J   23308.19192292  .00004824  00000-0  32097-3 0  9995,2 52459  53.2165 304.0867 0001741  89.3221 270.7971 15.08842030 83101,6917.874,95.437,540.944,538.535,0.0
52459.0,STARLINK-3856,PAYLOAD,2023-11-04 09:22:31,15.08848296,0.0001634,53.2167,303.1928,98.9876,261.1301,0.00035353,5.344e-05,0.0,0 STARLINK-3856,1 52459U 22049J   23308.39063966  .00005344  00000-0  35353-3 0  9998,2 52459  53.2167 303.1928 0001634  98.9876 261.1301 15.08848296 82979,6917.855,95.437,540.85,538.59,0.0
52459.0,STARLINK-3856,PAYLOAD,2023-11-05 06:02:31,15.08855492,0.0001651,53.2166,299.3286,101.2348,258.883,0.00049692,7.633e-05,0.0,0 STARLINK-3856,1 52459U 22049J   23309.25175885  .00007633  00000-0  49692-3 0  9992,2 52459  53.2166 299.3286 0001651 101.2348 258.8830 15.08855492 83261,6917.833,95.437,540.84,538.556,0.0
52459.0,STARLINK-3856,PAYLOAD,2023-11-06 02:42:32,15.08860586,0.0001929,53.2172,295.4629,109.0081,251.1121,0.00056009,8.642e-05,0.0,0 STARLINK-3856,1 52459U 22049J   23310.11287359  .00008642  00000-0  56009-3 0  9990,2 52459  53.2172 295.4629 0001929 109.0081 251.1121 15.08860586 83397,6917.817,95.436,541.017,538.348,0.0
52459.0,STARLINK-3856,PAYLOAD,2023-11-06 05:53:18,15.08877838,0.0001691,53.2177,294.8682,94.5415,265.5771,0.0011666,0.00018346,0.0,0 STARLINK-3856,1 52459U 22049J   23310.24534942  .00018346  00000-0  11666-2 0  9998,2 52459  53.2177 294.8682 0001691  94.5415 265.5771 15.08877838 83410,6917.765,95.435,540.8,538.46,0.0
52459.0,STARLINK-3856,PAYLOAD,2023-11-07 04:08:43,15.08816545,0.0001515,53.2174,290.7035,129.957,230.1555,0.00022304,3.261e-05,0.0,0 STARLINK-3856,1 52459U 22049J   23311.17272837  .00003261  00000-0  22304-3 0  9995,2 52459  53.2174 290.7035 0001515 129.9570 230.1555 15.08816545 83555,6917.952,95.439,540.865,538.769,0.0
52459.0,STARLINK-3856,PAYLOAD,2023-11-07 08:54:53,15.08805676,9.93e-05,53.2173,289.8123,83.1172,276.9933,0.00020562,2.983e-05,0.0,0 STARLINK-3856,1 52459U 22049J   23311.37145649  .00002983  00000-0  20562-3 0  9991,2 52459  53.2173 289.8123 0000993  83.1172 276.9933 15.08805676 83583,6917.985,95.44,540.537,539.163,0.0
52459.0,STARLINK-3856,PAYLOAD,2023-11-08 02:24:08,15.08845922,8.9e-05,53.2175,286.5431,89.4075,270.7019,0.0014212,0.00022406,0.0,0 STARLINK-3856,1 52459U 22049J   23312.10010004  .00022406  00000-0  14212-2 0  9995,2 52459  53.2175 286.5431 0000890  89.4075 270.7019 15.08845922 83695,6917.862,95.437,540.343,539.112,0.0
52459.0,STARLINK-3856,PAYLOAD,2023-11-08 07:10:17,15.08868293,9.46e-05,53.2172,285.6507,89.2483,270.8618,0.0019661,0.00031165,0.0,0 STARLINK-3856,1 52459U 22049J   23312.29881652  .00031165  00000-0  19661-2 0  9995,2 52459  53.2172 285.6507 0000946  89.2483 270.8618 15.08868293 83725,6917.794,95.436,540.313,539.004,0.0
52459.0,STARLINK-3856,PAYLOAD,2023-11-09 03:50:17,15.08874557,0.0001291,53.2174,281.785,80.832,279.2819,0.0015424,0.00024368,0.0,0 STARLINK-3856,1 52459U 22049J   23313.15992867  .00024368  00000-0  15424-2 0  9992,2 52459  53.2174 281.7850 0001291  80.8320 279.2819 15.08874557 83856,6917.775,95.435,540.533,538.747,0.0
52459.0,STARLINK-3856,PAYLOAD,2023-11-09 08:36:26,15.08884778,0.0001034,53.2165,280.8936,108.6386,251.4718,0.0016558,0.00026195,0.0,0 STARLINK-3856,1 52459U 22049J   23313.35864171  .00026195  00000-0  16558-2 0  9999,2 52459  53.2165 280.8936 0001034 108.6386 251.4718 15.08884778 83729,6917.744,95.435,540.324,538.893,0.0
